CCSDS_OMM_VERS,COMMENT,CREATION_DATE,ORIGINATOR,OBJECT_NAME,OBJECT_ID,CENTER_NAME,REF_FRAME,TIME_SYSTEM,MEAN_ELEMENT_THEORY,EPOCH,MEAN_MOTION,ECCENTRICITY,INCLINATION,RA_OF_ASC_NODE,ARG_OF_PERICENTER,MEAN_ANOMALY,EPHEMERIS_TYPE,CLASSIFICATION_TYPE,NORAD_CAT_ID,ELEMENT_SET_NO,REV_AT_EPOCH,BSTAR,MEAN_MOTION_DOT,MEAN_MOTION_DDOT,SEMIMAJOR_AXIS,PERIOD,APOAPSIS,PERIAPSIS,OBJECT_TYPE,RCS_SIZE,COUNTRY_CODE,LAUNCH_DATE,SITE,DECAY_DATE,FILE,GP_ID,TLE_LINE0,TLE_LINE1,TLE_LINE2
2,GENERATED VIA SPACE-TRACK.ORG API,2021-07-27T14:36:11,18 SPCS,JCSAT 2,1990-001B,EARTH,TEME,UTC,SGP4,2021-07-27T05:21:42.674976,0.98538877,0.0056175,14.5711,25.5075,283.974,277.1985,0,U,20402,999,9771,0.0,-1.25e-06,0,42657.635,1461.352,36519.129,36039.87,PAYLOAD,LARGE,JPN,1990-01-01,AFETR,,3083965,181546557,0 JCSAT 2,1 20402U 90001B   21208.22341059 -.00000125  00000-0  00000+0 0  9995,2 20402  14.5711  25.5075 0056175 283.9740 277.1985  0.98538877 97718
2,GENERATED VIA SPACE-TRACK.ORG API,2021-07-27T20:16:45,18 SPCS,JCSAT 2,1990-001B,EARTH,TEME,UTC,SGP4,2021-07-27T05:21:42.674976,0.98538877,0.0056175,14.5711,25.5075,283.974,277.1985,0,U,20402,999,9773,0.0,-1.25e-06,0,42657.635,1461.352,36519.129,36039.87,PAYLOAD,LARGE,JPN,1990-01-01,AFETR,,3084099,181555105,0 JCSAT 2,1 20402U 90001B   21208.22341059 -.00000125  00000-0  00000-0 0  9996,2 20402  14.5711  25.5075 0056175 283.9740 277.1985  0.98538877 97730
2,GENERATED VIA SPACE-TRACK.ORG API,2021-07-28T17:21:25,18 SPCS,JCSAT 2,1990-001B,EARTH,TEME,UTC,SGP4,2021-07-28T04:35:42.708192,0.98539275,0.0056156,14.5719,25.4993,283.9775,260.6163,0,U,20402,999,9774,0.0,-1.5e-06,0,42657.52,1461.346,36518.932,36039.837,PAYLOAD,LARGE,JPN,1990-01-01,AFETR,,3084730,181613570,0 JCSAT 2,1 20402U 90001B   21209.19146653 -.00000150  00000-0  00000-0 0  9994,2 20402  14.5719  25.4993 0056156 283.9775 260.6163  0.98539275 97742
2,GENERATED VIA SPACE-TRACK.ORG API,2021-07-29T02:55:33,18 SPCS,JCSAT 2,1990-001B,EARTH,TEME,UTC,SGP4,2021-07-28T15:41:35.054880,0.98539427,0.0056138,14.5723,25.4953,283.9799,64.6552,0,U,20402,999,9774,0.0,-1.61e-06,0,42657.476,1461.344,36518.811,36039.87,PAYLOAD,LARGE,JPN,1990-01-01,AFETR,,3085005,181644152,0 JCSAT 2,1 20402U 90001B   21209.65387795 -.00000161  00000-0  00000-0 0  9991,2 20402  14.5723  25.4953 0056138 283.9799  64.6552  0.98539427 97742
2,GENERATED VIA SPACE-TRACK.ORG API,2021-07-29T14:46:11,18 SPCS,JCSAT 2,1990-001B,EARTH,TEME,UTC,SGP4,2021-07-29T05:26:52.424160,0.98539611,0.0056135,14.5728,25.4905,283.9793,267.9708,0,U,20402,999,9773,0.0,-1.75e-06,0,42657.423,1461.341,36518.745,36039.83,PAYLOAD,LARGE,JPN,1990-01-01,AFETR,,3085356,181669463,0 JCSAT 2,1 20402U 90001B   21210.22699565 -.00000175  00000-0  00000+0 0  9991,2 20402  14.5728  25.4905 0056135 283.9793 267.9708  0.98539611 97730
2,GENERATED VIA SPACE-TRACK.ORG API,2021-07-29T19:48:38,18 SPCS,JCSAT 2,1990-001B,EARTH,TEME,UTC,SGP4,2021-07-29T05:26:52.424160,0.98539611,0.0056135,14.5728,25.4905,283.9793,267.9708,0,U,20402,999,9775,0.0,-1.76e-06,0,42657.423,1461.341,36518.745,36039.83,PAYLOAD,LARGE,JPN,1990-01-01,AFETR,,3085488,181677788,0 JCSAT 2,1 20402U 90001B   21210.22699565 -.00000176  00000-0  00000-0 0  9993,2 20402  14.5728  25.4905 0056135 283.9793 267.9708  0.98539611 97752
2,GENERATED VIA SPACE-TRACK.ORG API,2021-07-30T03:36:10,18 SPCS,JCSAT 2,1990-001B,EARTH,TEME,UTC,SGP4,2021-07-29T17:29:55.664736,0.98539807,0.0056117,14.5732,25.4862,283.9807,86.1007,0,U,20402,999,9776,0.0,-1.87e-06,0,42657.366,1461.338,36518.611,36039.851,PAYLOAD,LARGE,JPN,1990-01-01,AFETR,,3085670,181704496,0 JCSAT 2,1 20402U 90001B   21210.72911649 -.00000187  00000-0  00000-0 0  9990,2 20402  14.5732  25.4862 0056117 283.9807  86.1007  0.98539807 97766
2,GENERATED VIA SPACE-TRACK.ORG API,2021-07-30T18:14:19,18 SPCS,JCSAT 2,1990-001B,EARTH,TEME,UTC,SGP4,2021-07-30T05:32:11.838048,0.98539941,0.0056114,14.5736,25.482,283.98,264.0374,0,U,20402,999,9776,0.0,-1.99e-06,0,42657.327,1461.336,36518.56,36039.825,PAYLOAD,LARGE,JPN,1990-01-01,AFETR,,3085948,181732432,0 JCSAT 2,1 20402U 90001B   21211.23069257 -.00000199  00000-0  00000-0 0  9999,2 20402  14.5736  25.4820 0056114 283.9800 264.0374  0.98539941 97767
2,GENERATED VIA SPACE-TRACK.ORG API,2021-07-31T04:28:50,18 SPCS,JCSAT 2,1990-001B,EARTH,TEME,UTC,SGP4,2021-07-30T17:35:04.801344,0.98540074,0.0056097,14.574,25.4777,283.9778,82.1278,0,U,20402,999,9777,0.0,-2.09e-06,0,42657.289,1461.334,36518.449,36039.859,PAYLOAD,LARGE,JPN,1990-01-01,AFETR,,3086384,181766289,0 JCSAT 2,1 20402U 90001B   21211.73269446 -.00000209  00000-0  00000-0 0  9998,2 20402  14.5740  25.4777 0056097 283.9778  82.1278  0.98540074 97779
2,GENERATED VIA SPACE-TRACK.ORG API,2021-07-31T14:36:11,18 SPCS,JCSAT 2,1990-001B,EARTH,TEME,UTC,SGP4,2021-07-31T09:31:42.560832,0.98540192,0.005609,14.5746,25.4721,283.9839,317.7942,0,U,20402,999,9775,0.0,-2.22e-06,0,42657.255,1461.333,36518.385,36039.855,PAYLOAD,LARGE,JPN,1990-01-01,AFETR,,3086740,181814677,0 JCSAT 2,1 20402U 90001B   21212.39702038 -.00000222  00000-0  00000+0 0  9994,2 20402  14.5746  25.4721 0056090 283.9839 317.7942  0.98540192 97759
2,GENERATED VIA SPACE-TRACK.ORG API,2021-07-31T17:34:40,18 SPCS,JCSAT 2,1990-001B,EARTH,TEME,UTC,SGP4,2021-07-31T09:31:42.560832,0.98540192,0.005609,14.5746,25.4721,283.9839,317.7942,0,U,20402,999,9777,0.0,-2.22e-06,0,42657.255,1461.333,36518.385,36039.855,PAYLOAD,LARGE,JPN,1990-01-01,AFETR,,3086827,181821783,0 JCSAT 2,1 20402U 90001B   21212.39702038 -.00000222  00000-0  00000-0 0  9995,2 20402  14.5746  25.4721 0056090 283.9839 317.7942  0.98540192 97771
2,GENERATED VIA SPACE-TRACK.ORG API,2021-08-01T03:49:45,18 SPCS,JCSAT 2,1990-001B,EARTH,TEME,UTC,SGP4,2021-07-31T17:40:24.366432,0.98540307,0.005608,14.5749,25.4692,283.9641,78.2111,0,U,20402,999,9778,0.0,-2.28e-06,0,42657.222,1461.331,36518.309,36039.865,PAYLOAD,LARGE,JPN,1990-01-01,AFETR,,3087042,181850162,0 JCSAT 2,1 20402U 90001B   21212.73639313 -.00000228  00000-0  00000-0 0  9994,2 20402  14.5749  25.4692 0056080 283.9641  78.2111  0.98540307 97787
2,GENERATED VIA SPACE-TRACK.ORG API,2021-08-01T18:09:23,18 SPCS,JCSAT 2,1990-001B,EARTH,TEME,UTC,SGP4,2021-08-01T11:40:42.705696,0.98540416,0.0056068,14.5755,25.4629,283.9485,344.3699,0,U,20402,999,9778,0.0,-2.39e-06,0,42657.19,1461.329,36518.226,36039.885,PAYLOAD,LARGE,JPN,1990-01-01,AFETR,,3087492,181883633,0 JCSAT 2,1 20402U 90001B   21213.48660539 -.00000239  00000-0  00000-0 0  9993,2 20402  14.5755  25.4629 0056068 283.9485 344.3699  0.98540416 97785
2,GENERATED VIA SPACE-TRACK.ORG API,2021-08-02T03:10:00,18 SPCS,JCSAT 2,1990-001B,EARTH,TEME,UTC,SGP4,2021-08-01T17:45:34.089696,0.98540368,0.0056059,14.5757,25.4608,283.9465,74.2549,0,U,20402,999,9778,0.0,-2.42e-06,0,42657.204,1461.33,36518.201,36039.937,PAYLOAD,LARGE,JPN,1990-01-01,AFETR,,3087690,181910957,0 JCSAT 2,1 20402U 90001B   21213.73997789 -.00000242  00000-0  00000-0 0  9995,2 20402  14.5757  25.4608 0056059 283.9465  74.2549  0.98540368 97781
2,GENERATED VIA SPACE-TRACK.ORG API,2021-08-03T04:42:36,18 SPCS,JCSAT 2,1990-001B,EARTH,TEME,UTC,SGP4,2021-08-02T18:06:42.509088,0.98540453,0.0056043,14.5766,25.4522,283.941,74.2282,0,U,20402,999,9779,0.0,-2.5e-06,0,42657.18,1461.329,36518.108,36039.981,PAYLOAD,LARGE,JPN,1990-01-01,AFETR,,3088384,181994773,0 JCSAT 2,1 20402U 90001B   21214.75465867 -.00000250  00000-0  00000-0 0  9994,2 20402  14.5766  25.4522 0056043 283.9410  74.2282  0.98540453 97799
2,GENERATED VIA SPACE-TRACK.ORG API,2021-08-03T06:46:11,18 SPCS,JCSAT 2,1990-001B,EARTH,TEME,UTC,SGP4,2021-08-02T18:06:42.509088,0.98540453,0.0056043,14.5766,25.4522,283.941,74.2282,0,U,20402,999,9778,0.0,-2.5e-06,0,42657.18,1461.329,36518.108,36039.981,PAYLOAD,LARGE,JPN,1990-01-01,AFETR,,3088482,182016021,0 JCSAT 2,1 20402U 90001B   21214.75465867 -.00000250  00000-0  00000+0 0  9993,2 20402  14.5766  25.4522 0056043 283.9410  74.2282  0.98540453 97788
2,GENERATED VIA SPACE-TRACK.ORG API,2021-08-03T20:59:49,18 SPCS,JCSAT 2,1990-001B,EARTH,TEME,UTC,SGP4,2021-08-03T05:53:12.053760,0.98540363,0.0056033,14.577,25.448,283.9214,248.2958,0,U,20402,999,9780,0.0,-2.52e-06,0,42657.206,1461.33,36518.092,36040.05,PAYLOAD,LARGE,JPN,1990-01-01,AFETR,,3088807,182027759,0 JCSAT 2,1 20402U 90001B   21215.24527840 -.00000252  00000-0  00000-0 0  9991,2 20402  14.5770  25.4480 0056033 283.9214 248.2958  0.98540363 97803
2,GENERATED VIA SPACE-TRACK.ORG API,2021-08-04T03:11:50,18 SPCS,JCSAT 2,1990-001B,EARTH,TEME,UTC,SGP4,2021-08-03T18:54:10.323936,0.98540353,0.0056028,14.5774,25.4434,283.9142,80.7044,0,U,20402,999,9781,0.0,-2.53e-06,0,42657.209,1461.33,36518.073,36040.074,PAYLOAD,LARGE,JPN,1990-01-01,AFETR,,3088972,182078213,0 JCSAT 2,1 20402U 90001B   21215.78761949 -.00000253  00000-0  00000-0 0  9991,2 20402  14.5774  25.4434 0056028 283.9142  80.7044  0.98540353 97815
2,GENERATED VIA SPACE-TRACK.ORG API,2021-08-05T03:25:37,18 SPCS,JCSAT 2,1990-001B,EARTH,TEME,UTC,SGP4,2021-08-04T19:44:24.180576,0.98540112,0.0056015,14.5783,25.4347,283.8767,87.8711,0,U,20402,999,9782,0.0,-2.49e-06,0,42657.278,1461.334,36518.088,36040.198,PAYLOAD,LARGE,JPN,1990-01-01,AFETR,,3089704,182164339,0 JCSAT 2,1 20402U 90001B   21216.82250209 -.00000249  00000-0  00000-0 0  9994,2 20402  14.5783  25.4347 0056015 283.8767  87.8711  0.98540112 97829
2,GENERATED VIA SPACE-TRACK.ORG API,2021-08-05T17:43:33,18 SPCS,JCSAT 2,1990-001B,EARTH,TEME,UTC,SGP4,2021-08-05T07:46:41.597184,0.98539983,0.0056007,14.5787,25.4305,283.8613,265.8284,0,U,20402,999,9782,0.0,-2.44e-06,0,42657.315,1461.336,36518.091,36040.27,PAYLOAD,LARGE,JPN,1990-01-01,AFETR,,3090160,182196878,0 JCSAT 2,1 20402U 90001B   21217.32409256 -.00000244  00000-0  00000-0 0  9993,2 20402  14.5787  25.4305 0056007 283.8613 265.8284  0.98539983 97825
